{
  "type": "FeatureCollection",
  "name": "Nepal_Tourism_Districts_TO3",
  "crs": {
    "type": "name",
    "properties": { "name": "urn:ogc:def:crs:OGC:1.3:CRS84" }
  },
  "_comment": "Preprocessed in QGIS: Simplify Geometry (Douglas-Peucker, epsilon=0.001 deg) + Check Validity (GEOS engine). CRS: WGS 84 (EPSG:4326). Dataset: Nepal Major Tourism Districts 2024.",
  "features": [
    {
      "type": "Feature",
      "properties": {
        "district": "Kathmandu",
        "province": "Bagmati",
        "annual_visitors": 1250000,
        "hotel_count": 1247,
        "heritage_sites": 7,
        "tourism_revenue_npr": 45000000000,
        "category": "Heritage & Urban"
      },
      "geometry": {
        "type": "Polygon",
        "coordinates": [[
          [85.17, 27.63], [85.29, 27.62], [85.40, 27.63],
          [85.52, 27.68], [85.51, 27.79], [85.42, 27.85],
          [85.26, 27.84], [85.17, 27.78], [85.17, 27.63]
        ]]
      }
    },
    {
      "type": "Feature",
      "properties": {
        "district": "Lalitpur",
        "province": "Bagmati",
        "annual_visitors": 310000,
        "hotel_count": 342,
        "heritage_sites": 3,
        "tourism_revenue_npr": 8500000000,
        "category": "Heritage & Urban"
      },
      "geometry": {
        "type": "Polygon",
        "coordinates": [[
          [85.25, 27.48], [85.44, 27.47], [85.52, 27.54],
          [85.51, 27.67], [85.38, 27.68], [85.25, 27.65],
          [85.20, 27.57], [85.25, 27.48]
        ]]
      }
    },
    {
      "type": "Feature",
      "properties": {
        "district": "Bhaktapur",
        "province": "Bagmati",
        "annual_visitors": 285000,
        "hotel_count": 187,
        "heritage_sites": 2,
        "tourism_revenue_npr": 6200000000,
        "category": "Heritage & Urban"
      },
      "geometry": {
        "type": "Polygon",
        "coordinates": [[
          [85.42, 27.60], [85.56, 27.59], [85.65, 27.65],
          [85.62, 27.79], [85.50, 27.82], [85.40, 27.77],
          [85.38, 27.67], [85.42, 27.60]
        ]]
      }
    },
    {
      "type": "Feature",
      "properties": {
        "district": "Kaski",
        "province": "Gandaki",
        "annual_visitors": 420000,
        "hotel_count": 892,
        "heritage_sites": 1,
        "tourism_revenue_npr": 18500000000,
        "category": "Adventure & Nature"
      },
      "geometry": {
        "type": "Polygon",
        "coordinates": [[
          [83.75, 28.10], [83.98, 28.08], [84.18, 28.15],
          [84.20, 28.40], [84.10, 28.55], [83.88, 28.52],
          [83.72, 28.40], [83.70, 28.24], [83.75, 28.10]
        ]]
      }
    },
    {
      "type": "Feature",
      "properties": {
        "district": "Chitwan",
        "province": "Bagmati",
        "annual_visitors": 380000,
        "hotel_count": 456,
        "heritage_sites": 1,
        "tourism_revenue_npr": 14200000000,
        "category": "Wildlife & Safari"
      },
      "geometry": {
        "type": "Polygon",
        "coordinates": [[
          [84.00, 27.40], [84.38, 27.38], [84.85, 27.42],
          [84.88, 27.62], [84.60, 27.78], [84.20, 27.75],
          [83.97, 27.68], [83.95, 27.52], [84.00, 27.40]
        ]]
      }
    },
    {
      "type": "Feature",
      "properties": {
        "district": "Solukhumbu",
        "province": "Koshi",
        "annual_visitors": 65000,
        "hotel_count": 312,
        "heritage_sites": 1,
        "tourism_revenue_npr": 7800000000,
        "category": "Trekking & Mountaineering"
      },
      "geometry": {
        "type": "Polygon",
        "coordinates": [[
          [86.20, 27.55], [86.60, 27.52], [86.98, 27.62],
          [86.98, 28.00], [86.70, 28.12], [86.35, 28.08],
          [86.15, 27.85], [86.18, 27.68], [86.20, 27.55]
        ]]
      }
    },
    {
      "type": "Feature",
      "properties": {
        "district": "Mustang",
        "province": "Gandaki",
        "annual_visitors": 28000,
        "hotel_count": 142,
        "heritage_sites": 4,
        "tourism_revenue_npr": 3200000000,
        "category": "Cultural & Adventure"
      },
      "geometry": {
        "type": "Polygon",
        "coordinates": [[
          [83.60, 28.78], [84.00, 28.75], [84.25, 28.85],
          [84.22, 29.22], [84.05, 29.40], [83.78, 29.38],
          [83.58, 29.15], [83.55, 28.95], [83.60, 28.78]
        ]]
      }
    },
    {
      "type": "Feature",
      "properties": {
        "district": "Rupandehi",
        "province": "Lumbini",
        "annual_visitors": 180000,
        "hotel_count": 278,
        "heritage_sites": 1,
        "tourism_revenue_npr": 5400000000,
        "category": "Pilgrimage & Heritage"
      },
      "geometry": {
        "type": "Polygon",
        "coordinates": [[
          [83.18, 27.40], [83.45, 27.38], [83.62, 27.45],
          [83.60, 27.68], [83.42, 27.75], [83.20, 27.72],
          [83.15, 27.55], [83.18, 27.40]
        ]]
      }
    },
    {
      "type": "Feature",
      "properties": {
        "district": "Manang",
        "province": "Gandaki",
        "annual_visitors": 15000,
        "hotel_count": 98,
        "heritage_sites": 0,
        "tourism_revenue_npr": 1800000000,
        "category": "Trekking & High Altitude"
      },
      "geometry": {
        "type": "Polygon",
        "coordinates": [[
          [83.88, 28.50], [84.28, 28.48], [84.48, 28.58],
          [84.45, 28.90], [84.20, 29.00], [83.92, 28.95],
          [83.80, 28.75], [83.85, 28.60], [83.88, 28.50]
        ]]
      }
    },
    {
      "type": "Feature",
      "properties": {
        "district": "Taplejung",
        "province": "Koshi",
        "annual_visitors": 12000,
        "hotel_count": 76,
        "heritage_sites": 0,
        "tourism_revenue_npr": 980000000,
        "category": "Trekking & Mountaineering"
      },
      "geometry": {
        "type": "Polygon",
        "coordinates": [[
          [87.55, 27.35], [87.82, 27.32], [88.00, 27.42],
          [87.98, 27.72], [87.75, 27.90], [87.52, 27.85],
          [87.40, 27.65], [87.48, 27.48], [87.55, 27.35]
        ]]
      }
    },
    {
      "type": "Feature",
      "properties": {
        "district": "Dolpa",
        "province": "Karnali",
        "annual_visitors": 8000,
        "hotel_count": 45,
        "heritage_sites": 0,
        "tourism_revenue_npr": 650000000,
        "category": "Remote & Cultural"
      },
      "geometry": {
        "type": "Polygon",
        "coordinates": [[
          [82.52, 28.78], [83.00, 28.72], [83.30, 28.85],
          [83.28, 29.25], [83.05, 29.50], [82.65, 29.45],
          [82.40, 29.20], [82.45, 28.95], [82.52, 28.78]
        ]]
      }
    },
    {
      "type": "Feature",
      "properties": {
        "district": "Ilam",
        "province": "Koshi",
        "annual_visitors": 42000,
        "hotel_count": 145,
        "heritage_sites": 0,
        "tourism_revenue_npr": 1500000000,
        "category": "Tea Garden & Nature"
      },
      "geometry": {
        "type": "Polygon",
        "coordinates": [[
          [87.72, 26.82], [87.98, 26.80], [88.17, 26.90],
          [88.15, 27.15], [87.95, 27.28], [87.68, 27.25],
          [87.60, 27.05], [87.65, 26.90], [87.72, 26.82]
        ]]
      }
    },
    {
      "type": "Feature",
      "properties": {
        "district": "Sindhupalchok",
        "province": "Bagmati",
        "annual_visitors": 45000,
        "hotel_count": 198,
        "heritage_sites": 0,
        "tourism_revenue_npr": 1200000000,
        "category": "Adventure & Cultural"
      },
      "geometry": {
        "type": "Polygon",
        "coordinates": [[
          [85.52, 27.75], [85.82, 27.72], [86.22, 27.82],
          [86.20, 28.10], [85.90, 28.25], [85.55, 28.20],
          [85.40, 28.05], [85.48, 27.88], [85.52, 27.75]
        ]]
      }
    },
    {
      "type": "Feature",
      "properties": {
        "district": "Nuwakot",
        "province": "Bagmati",
        "annual_visitors": 35000,
        "hotel_count": 124,
        "heritage_sites": 1,
        "tourism_revenue_npr": 900000000,
        "category": "Cultural & Trekking"
      },
      "geometry": {
        "type": "Polygon",
        "coordinates": [[
          [85.02, 27.82], [85.28, 27.80], [85.45, 27.90],
          [85.42, 28.10], [85.22, 28.20], [84.98, 28.15],
          [84.88, 28.00], [84.95, 27.88], [85.02, 27.82]
        ]]
      }
    },
    {
      "type": "Feature",
      "properties": {
        "district": "Dhading",
        "province": "Bagmati",
        "annual_visitors": 22000,
        "hotel_count": 108,
        "heritage_sites": 0,
        "tourism_revenue_npr": 720000000,
        "category": "Trekking & Nature"
      },
      "geometry": {
        "type": "Polygon",
        "coordinates": [[
          [84.70, 27.85], [85.00, 27.82], [85.22, 27.90],
          [85.20, 28.17], [84.98, 28.30], [84.72, 28.25],
          [84.55, 28.10], [84.60, 27.95], [84.70, 27.85]
        ]]
      }
    }
  ]
}
